H1 CPF 01  gfz 2022 02 09 01  5401 tandemx   
H2 1003001  6202 36605    2022 02 09 00 59 42 2022 02 14 00 00 42   120 1 1  0 0 0
H9
10 0 59621  79182.000000  0   -3571041.594   5659877.287   1626742.877
10 0 59621  79302.000000  0   -3500060.354   5887114.420    735829.013
10 0 59621  79422.000000  0   -3364829.884   6009623.784   -168042.640
10 0 59621  79542.000000  0   -3169600.190   6024221.462  -1068957.237
10 0 59621  79662.000000  0   -2919717.469   5929715.963  -1951069.612
10 0 59621  79782.000000  0   -2621489.396   5726940.338  -2798892.895
10 0 59621  79902.000000  0   -2282032.611   5418743.433  -3597574.202
10 0 59621  80022.000000  0   -1909108.255   5009943.024  -4333156.920
10 0 59621  80142.000000  0   -1510947.554   4507239.017  -4992822.299
10 0 59621  80262.000000  0   -1096073.692   3919093.513  -5565106.066
10 0 59621  80382.000000  0    -673122.417   3255579.862  -6040090.077
10 0 59621  80502.000000  0    -250664.938   2528202.105  -6409564.659
10 0 59621  80622.000000  0     162962.240   1749690.576  -6667158.209
10 0 59621  80742.000000  0     559816.907    933778.984  -6808436.806
10 0 59621  80862.000000  0     932499.626     94964.574  -6830972.809
10 0 59621  80982.000000  0    1274288.185   -751745.046  -6734381.694
10 0 59621  81102.000000  0    1579255.322  -1591094.356  -6520326.276
10 0 59621  81222.000000  0    1842369.163  -2407847.087  -6192491.040
10 0 59621  81342.000000  0    2059575.836  -3187056.400  -5756526.539
10 0 59621  81462.000000  0    2227862.362  -3914336.622  -5219963.400
10 0 59621  81582.000000  0    2345298.766  -4576130.503  -4592091.819
10 0 59621  81702.000000  0    2411058.023  -5159963.910  -3883810.867
10 0 59621  81822.000000  0    2425413.758  -5654687.289  -3107449.802
10 0 59621  81942.000000  0    2389715.414  -6050698.091  -2276560.634
10 0 59621  82062.000000  0    2306341.102  -6340138.373  -1405685.437
10 0 59621  82182.000000  0    2178627.828  -6517062.065   -510101.166
10 0 59621  82302.000000  0    2010782.130  -6577564.668    394454.206
10 0 59621  82422.000000  0    1807770.587  -6519873.033   1292064.293
10 0 59621  82542.000000  0    1575196.205  -6344394.897   2166923.490
10 0 59621  82662.000000  0    1319160.093  -6053721.079   3003625.453
10 0 59621  82782.000000  0    1046114.511  -5652584.516   3787441.266
10 0 59621  82902.000000  0     762710.634  -5147776.725   4504583.760
10 0 59621  83022.000000  0     475644.718  -4548025.068   5142452.276
10 0 59621  83142.000000  0     191505.862  -3863832.389   5689854.463
10 0 59621  83262.000000  0     -83369.236  -3107282.682   6137199.828
10 0 59621  83382.000000  0    -343032.669  -2291818.748   6476661.459
10 0 59621  83502.000000  0    -582050.086  -1431998.880   6702305.639
10 0 59621  83622.000000  0    -795611.281   -543235.088   6810190.490
10 0 59621  83742.000000  0    -979625.180    358484.486   6798431.617
10 0 59621  83862.000000  0   -1130797.565   1256883.337   6667232.892
10 0 59621  83982.000000  0   -1246689.599   2135689.714   6418882.893
10 0 59621  84102.000000  0   -1325757.103   2978930.778   6057717.672
10 0 59621  84222.000000  0   -1367370.321   3771223.818   5590049.673
10 0 59621  84342.000000  0   -1371812.801   4498059.515   5024063.204
10 0 59621  84462.000000  0   -1340260.235   5146073.433   4369677.981
10 0 59621  84582.000000  0   -1274739.335   5703299.904   3638379.444
10 0 59621  84702.000000  0   -1178067.308   6159401.180   2843020.338
10 0 59621  84822.000000  0   -1053775.352   6505870.511   1997595.647
10 0 59621  84942.000000  0    -906012.858   6736200.543   1116991.809
10 0 59621  85062.000000  0    -739437.721   6846011.941    216718.780
10 0 59621  85182.000000  0    -559095.208   6833141.465   -687370.330
10 0 59621  85302.000000  0    -370288.155   6697685.684  -1579368.785
10 0 59621  85422.000000  0    -178442.450   6441995.796  -2443606.106
10 0 59621  85542.000000  0      11028.022   6070627.293  -3264928.834
10 0 59621  85662.000000  0     192854.296   5590248.396  -4028968.958
10 0 59621  85782.000000  0     362040.630   5009508.405  -4722395.299
10 0 59621  85902.000000  0     513984.652   4338869.554  -5333142.445
10 0 59621  86022.000000  0     644586.653   3590407.476  -5850613.712
10 0 59621  86142.000000  0     750345.083   2777584.597  -6265855.570
10 0 59621  86262.000000  0     828436.971   1915002.211  -6571701.097
10 0 59621  86382.000000  0     876782.215   1018137.289  -6762882.047
10 0 59622    102.000000  0     894090.172    103067.272  -6836110.629
10 0 59622    222.000000  0     879888.683   -813813.431  -6790129.932
10 0 59622    342.000000  0     834534.306  -1716080.767  -6625731.559
10 0 59622    462.000000  0     759204.596  -2587566.450  -6345742.570
10 0 59622    582.000000  0     655872.553  -3412641.085  -5954984.595
10 0 59622    702.000000  0     527262.028  -4176492.958  -5460199.726
10 0 59622    822.000000  0     376786.625  -4865393.684  -4869943.906
10 0 59622    942.000000  0     208472.057  -5466948.848  -4194450.866
10 0 59622   1062.000000  0      26862.802  -5970329.340  -3445465.147
10 0 59622   1182.000000  0    -163084.773  -6366476.747  -2636045.656
10 0 59622   1302.000000  0    -356120.772  -6648279.016  -1780343.542
10 0 59622   1422.000000  0    -546829.131  -6810711.720   -893355.412
10 0 59622   1542.000000  0    -729760.820  -6850938.748      9342.886
10 0 59622   1662.000000  0    -899569.653  -6768370.011    911875.519
10 0 59622   1782.000000  0   -1051147.516  -6564675.240   1798353.470
10 0 59622   1902.000000  0   -1179755.298  -6243751.978   2653163.689
10 0 59622   2022.000000  0   -1281145.772  -5811648.130   3461253.140
10 0 59622   2142.000000  0   -1351674.606  -5276440.834   4208401.230
10 0 59622   2262.000000  0   -1388397.832  -4648075.642   4881472.741
10 0 59622   2382.000000  0   -1389153.458  -3938173.173   5468649.267
10 0 59622   2502.000000  0   -1352625.554  -3159804.566   5959636.268
10 0 59622   2622.000000  0   -1278388.334  -2327240.769   6345838.573
10 0 59622   2742.000000  0   -1166929.677  -1455685.500   6620503.403
10 0 59622   2862.000000  0   -1019655.377   -560995.107   6778833.001
10 0 59622   2982.000000  0    -838874.027    340611.673   6818063.276
10 0 59622   3102.000000  0    -627761.317   1232847.108   6737509.149
10 0 59622   3222.000000  0    -390303.942   2099648.318   6538576.132
10 0 59622   3342.000000  0    -131224.599   2925466.108   6224737.201
10 0 59622   3462.000000  0     144110.371   3695544.168   5801475.988
10 0 59622   3582.000000  0     429798.984   4396185.604   5276196.424
10 0 59622   3702.000000  0     719526.531   5015001.258   4658099.504
10 0 59622   3822.000000  0    1006701.040   5541136.648   3958027.166
10 0 59622   3942.000000  0    1284596.239   5965469.338   3188276.130
10 0 59622   4062.000000  0    1546504.544   6280780.119   2362386.668
10 0 59622   4182.000000  0    1785891.854   6481885.607   1494898.386
10 0 59622   4302.000000  0    1996550.418   6565729.667    601089.129
10 0 59622   4422.000000  0    2172747.704   6531431.699   -303302.017
10 0 59622   4542.000000  0    2309365.830   6380291.595  -1202359.695
10 0 59622   4662.000000  0    2402029.137   6115751.573  -2080280.216
10 0 59622   4782.000000  0    2447216.771   5743315.720  -2921656.444
10 0 59622   4902.000000  0    2442357.138   5270428.977  -3711753.925
10 0 59622   5022.000000  0    2385901.777   4706317.972  -4436771.421
10 0 59622   5142.000000  0    2277376.664   4061799.897  -5084079.633
10 0 59622   5262.000000  0    2117411.026   3349065.318  -5642434.785
10 0 59622   5382.000000  0    1907743.632   2581440.359  -6102165.301
10 0 59622   5502.000000  0    1651206.042   1773132.325  -6455328.594
10 0 59622   5622.000000  0    1351684.632    938965.832  -6695836.147
10 0 59622   5742.000000  0    1014062.025     94113.404  -6819548.877
10 0 59622   5862.000000  0     644137.220   -746176.177  -6824340.868
10 0 59622   5982.000000  0     248527.126  -1566847.211  -6710130.376
10 0 59622   6102.000000  0    -165448.421  -2353298.786  -6478880.229
10 0 59622   6222.000000  0    -589898.157  -3091638.506  -6134569.748
10 0 59622   6342.000000  0   -1016505.850  -3768925.572  -5683133.251
10 0 59622   6462.000000  0   -1436688.219  -4373396.631  -5132367.768
10 0 59622   6582.000000  0   -1841763.439  -4894673.872  -4491810.546
10 0 59622   6702.000000  0   -2223127.461  -5323950.495  -3772584.714
10 0 59622   6822.000000  0   -2572434.222  -5654148.534  -2987214.986
10 0 59622   6942.000000  0   -2881775.684  -5880045.842  -2149416.151
10 0 59622   7062.000000  0   -3143858.163  -5998369.580  -1273856.855
10 0 59622   7182.000000  0   -3352170.591  -6007852.663   -375901.324
10 0 59622   7302.000000  0   -3501139.269  -5909249.654    528665.764
10 0 59622   7422.000000  0   -3586265.138  -5705311.931   1423924.292
10 0 59622   7542.000000  0   -3604240.241  -5400722.242   2294108.175
10 0 59622   7662.000000  0   -3553039.647  -5001989.565   3123891.894
10 0 59622   7782.000000  0   -3431986.899  -4517308.413   3898667.509
10 0 59622   7902.000000  0   -3241791.494  -3956385.844   4604807.139
10 0 59622   8022.000000  0   -2984557.634  -3330240.036   5229904.836
10 0 59622   8142.000000  0   -2663764.396  -2650976.726   5762993.299
10 0 59622   8262.000000  0   -2284217.667  -1931549.502   6194732.423
10 0 59622   8382.000000  0   -1851975.972  -1185509.082   6517568.695
10 0 59622   8502.000000  0   -1374250.062   -426743.939   6725862.662
10 0 59622   8622.000000  0    -859280.014    330780.014   6815978.946
10 0 59622   8742.000000  0    -316193.543   1073274.734   6786345.551
10 0 59622   8862.000000  0     245155.598   1787380.592   6637480.297
10 0 59622   8982.000000  0     814366.174   2460406.704   6371982.354
10 0 59622   9102.000000  0    1380681.529   3080556.196   5994489.097
10 0 59622   9222.000000  0    1933191.783   3637134.360   5511600.542
99
